"Name","Brief Description","Proximity","Street Address","City","State","Zip Code","Phone Number","Web Site","Hours of Operation"
"AIDS Center of Queens County","Food pantry offering an HIV/AIDS diet. 
","","62-07 Woodside Avenue ","WOODSIDE","NY","11377","(718) 472-9400 x3366","","Tue, Thu: 10:00 AM - 12:00 PM"
"AIDS Center of Queens County","Food pantry offering an HIV/AIDS diet. 
","","161-21 Jamaica Avenue","JAMAICA","NY","11432","(718) 896-2500","","Tue, Thu: 8:30 AM - 11:00 AM"
"AIDS Center of Queens County","Food pantry offering an HIV/AIDS diet. 
","","1139 Foam Place","FAR ROCKAWAY","NY","11691","(718) 739-2525","","Wed, Fri: 11:00 AM - 1:00 PM"
"AIDS Faces NY Inc","Food pantry.","","123 West 115 Street ","NEW YORK","NY","10026","(212) 663-7772","","Thu: 10:00 AM - 1:00 PM"
"Abraham House","Food pantry.","","340 Willis Avenue","BRONX","NY","10454","(718) 292-9321","","Sat: 6:30 AM - 7:30 AM"
"Acts Community Development Corporation","Food pantry.","","2114 Mermaid Avenue","BROOKLYN”,”N:Y”,”11224","(718) 415-1170","","Tue: 6:00 PM - 7:00 PM; Thu: 11:00 AM - 12:00 PM "
"Admirable Church ","Food pantry.","","1910 Flatbush Avenue","BROOKLYN","NY","11210","(718) 649-7531","","Sat: 10:00 AM - 12:00 PM"
"African Service Committee","Food pantry.","","429 West 127th street","NEW YORK","NY","10027","(212) 222-3882","","Mon-Fri: 9:00 AM - 5:00 PM"
"Agape Christian Center","Soup kitchen.","","59-02 Summerfield Street","RIDGEWOOD","NY","11385","(917) 604-4812","","Sat: 12:00 PM - 2:00 PM"
"Agape Christian Center","Food pantry.","","59-02 Summerfield Street","RIDGEWOOD","NY","11385","(917) 604-4812","","Sat: 12:00 PM - 2:00 PM"
"All Nations Baptist Church of Woodhaven","Food pantry.","","86-76 80th Street","WOODHAVEN","NY","11421","(718) 296-2025","","Sat: 1:00 PM - 2:00 PM"
"All People's Church Apostolic Faith, Inc","Food pantry.","","182 Tompkins Avenue","BROOKLYN","NY","11206","(718) 782-3703","","Sat: 10:00 AM - 11:30 AM"
"All Saints Roman Catholic Church","Food pantry.","","47 East 129th Street","NEW YORK","NY","10035","(212) 534-3535","","Sat: 8:30 AM - 10:30 AM"
"Allen Outreach Ministry Feeding Program","Soup kitchen.","","111-54 Merrick Boulevard","JAMAICA","NY","11433","(718) 526-3510","","Mon, Thu: 11:00 AM - 1:00 PM"
"Allen Outreach Ministry Feeding Program","Food pantry.","","111-54 Merrick Boulevard","JAMAICA","NY","11433","(718) 526-3510","","Thu: 11:00 AM - 1:00 PM"
"Ammi Evangelical Baptist Church","Food pantry. ","","1799 Flatbush Avenue","BROOKLYN","NY","11210","(718) 282-7565","","Sat: 12:30 PM - 2:00 PM"
"Ascension Outreach, Inc","Food pantry. This location is open on the 2nd and 4th Wednesday of each month. ","","12 West 11th Street","NEW YORK","NY","10011","(212) 254-8620","","Wed: 8:30 AM - 9:30 AM "
"Astor Child Guidance Center","Food pantry.","","750 Tilden Street","BRONX","NY","10467","(718) 231-3400","","Thu: 2:00 PM - 3:00 PM"
"BMV St Marys Church Winfield","Food pantry. ","","70-31 48th Avenue","WOODSIDE","NY","11377","(718) 672-4848","","Thu: 9:30 AM - 12:00 PM"
"Bay Ridge Center","Food pantry. This location is open only on the first Monday of each month.","","411 Ovington Avenue","BROOKLYN","NY","11209","(718) 748-0650","","Mon: 10:00 AM - 3:00 PM"
"Bay View Houses Resident Association ","Food pantry.","","2085 Rockaway Parkway","BROOKLYN","NY","11236","(347) 216-5909","","Thurs: 10:00 AM - 2:00 PM
1st Thurs of the month: 10:00 AM - 2:00 PM and 4:00 PM - 7:00 PM"
"Bed-Stuy Campaign Against Hunger","Food pantry.","","2004 Fulton Street","BROOKLYN","NY","11233","(718) 773-3551 x152","","Mon: 10 AM - 3 PM; Tue - Fri: 10 AM - 6:00 PM"
"Bedford Central Presbyterian Church Food Provider","Food pantry.","","1200 Dean Street","BROOKLYN","NY","11216","(718) 467-0740","","Thu: 1:00 PM - 2:00 PM"
"Bensonhurst Council of Jewish Organizations","Food pantry with kosher food.","","8635 21st Avenue","BROOKLYN","NY","11214","(718) 333-1834","","Mon, Tue, Thu: 10:00 AM - 2:00 PM"
"Beraca Seventh Day Adventist Church","Food pantry.","","91-19 191st Street","HOLLIS","NY","11423","(718) 740-1916","","Wed: 10:00 AM - 11:30 AM"
"Beth Hark Christian Counseling Center Food Provider I","Food pantry.","","1832 Madison Avenue","NEW YORK","NY","10035","(212) 860-1523","","Tue: 1:00 PM - 5:00 PM"
"Beth Hark Christian Counseling Center Food Provider II","Soup kitchen. ","","1832 Madison Avenue","NEW YORK","NY","10035","(212) 860-1523","","Wed, Thu: 12:00 PM - 2:00 PM"
"Bethany Baptist Church of Jamaica","Food pantry.  ","","157-11 111th Avenue","JAMAICA","NY","11433","(718) 659-6099","","Tue: 10:00 AM - 12:00 PM"
"Bethany Baptist Church of Jamaica ","Soup kitchen. ","","157-11 111th Avenue","JAMAICA","NY","11433","(718) 659-6099","","Wed: 12:00 PM - 3:00 PM"
"Bethany United Methodist Church","Soup kitchen.","","1208 St. John's Place","BROOKLYN","NY","11213","(718) 774-5689","","Tue: 12:30 PM - 2:30 PM"
"Bethel African Methodist Episcopal Church","Food pantry. ","","54-60 West 132nd Street","NEW YORK","NY","10037","(212) 862-0100","","Thu: 9:00 AM - 12:00 PM"
"Bethel African Methodist Episcopal Church - Bethel Arverne Community","Food pantry.","","215 Beach 77th Street","ARVERNE","NY","11692","(718) 474-7712","","Thu: 11:00 AM - 1:00 PM"
"Bethel Gospel Tabernacle Church","Soup kitchen.","","110-25 Guy R. Brewer Boulevard","JAMAICA","NY","11433","(718) 291-4452","","Tue, Fri: 12:00 PM - 2:00 PM; Wed: 9:00 AM - 10:00 AM"
"Bethel Gospel Tabernacle Church","Food pantry. ","","110-25 Guy R. Brewer Boulevard","JAMAICA","NY","11433","(718) 291-4452","","Wed: 11:00 AM - 12:00 PM"
"Bethel Holy Church","Soup kitchen.","","922 St. Nicholas Avenue","NEW YORK","NY","10032","(212) 283-9407","","Tue: 1:00 PM - 2:30 PM"
"Bethel House of Yahweh","Food pantry.","","3482 Park Ave","BRONX","NY","10456","(718) 401-0743","","Sat: 9:00 AM - 11:00 AM "
"Bethel Seventh Day Adventist Church","Soup kitchen.","","457 Grand Avenue","BROOKLYN","NY","11238","(718) 783-3630","","Sun: 1:00 PM - 2:00 PM"
"Bethel Seventh Day Adventist Church","Food pantry.","","457 Grand Avenue","BROOKLYN","NY","11238","(718) 783-3630","","Wed: 3:00 PM - 5:00 PM"
"Bethesda Missionary Baptist Church","Soup kitchen.","","179-09 Jamaica Avenue","JAMAICA","NY","11432","(718) 297-5908","","Mon; Thu: 12:00 PM - 2:00 PM"
"Black Forum of Co-Op City","Food pantry.","","177 Dreiser Loop","BRONX","NY","10475","(718) 320-8035","","Tues, Wed - Fri: 11:00 AM - 12:45 PM"
"Blanche Memorial Church Food Provider I","Food pantry.","","109-74 Sutphin Boulevard","JAMAICA","NY","11435","(718) 658-2458","","Tue: 9:00 AM - 10:00 AM"
"Blessed Assurance Church of God Blessed Assurance Charity Inc","Food pantry.","","2093 Fulton Street ","BROOKLYN","NY","11233","(347) 965-1725","","Sat: 9:00 AM – 11:00 AM"
"Blessed Sacrament Church-Brooklyn","Food pantry.","","198 Euclid Avenue","BROOKLYN","NY","11205","(718) 827-1200","","Wed: 11:30 AM - 12:30 PM"
"Bridge Street Missionary Free Food Program","Soup kitchen. ","","277 Stuyvesant Avenue","BROOKLYN","NY","11221","(718) 452-3936","","Wed: 11:00 AM - 1:30 PM"
"Bright Temple AME Church","Food pantry. This location is ONLY open the last Tuesday of the month. ","","812 Faile Street","BRONX","NY","10474","(718) 542-7777","","Tue: 10:00 AM - 12:00 PM"
"Bronx AIDS Services ","Food pantry offering an HIV/AIDS diet. 
","","540 East Fordham ","BRONX","NY","10458","(718) 295-5605","","Mon - Fri: 9:30 AM - 4:00 PM"
"Bronx Bethany Community Corporation","Food pantry.","","964 East 227th Street ","BRONX","NY","10466","(718) 231-5276","","Wed: 9:00 AM - 11:00 AM"
"Bronx SDA Church Food Pantry","Food pantry.","","1695 Washington Avenue","BRONX","NY","10457","(718) 618-7344","","Thu: 2:00 PM - 5:00 PM"
"Bronx Temple Seventh Day Adventist Church","Food pantry.","","495 Willis Avenue","BRONX","NY","10455","","","Tue, Thu: 12:00 PM - 1:00 PM"
"Brooklyn Rescue Mission Urban Harvest Center Inc","Food pantry.","","919 Gates Ave ","BROOKLYN","NY","11221","(917) 426-3001","","Tues - Thu: 10:00 AM - 12:00 PM"
"Brooklyn West Family Center","Food pantry.","","191 Joralemon Street","BROOKLYN","NY","11201","(718) 722-6001","","Tue, Thu: 9:30 AM - 1:30 PM"
"Brownsville Temple Seventh Day Adventist Church","Food pantry. This location is open on the 1st, 2nd, and 3rd Sundays of each month.","","1089 Clarkson Avenue","BROOKLYN","NY","11212","(718) 345-3689","","Sun: 11:00 AM - 1:00 PM (Does not distribute on the last Sunday of each month)"
"Cabrini Immigrant Services","Food pantry.","","139 Henry Street","NEW YORK","NY","10002","(212) 791-4590","","Tue: 9:30 AM - 12:30 PM"
"Caldwell Temple AME Zion Church","Soup kitchen.","","1288 Rev James A Polite Avenue","BRONX","NY","10459","(347) 577-5070","","Sat: 11:00 AM - 2:00 PM"
"Calvary Baptist Church","Food pantry. ","","111-10 Guy R. Brewer Boulevard","JAMAICA","NY","11433","(718) 297-2301","","Thu: 11:30 AM - 1:30 PM"
"Calvary Pentecostal Church","Food pantry.","","151 Woodruff Avenue","BROOKLYN","NY","11226","(718) 469-8252","","Thu: 11:00 AM - 1:00 PM"
"Calvary's Mission","Food pantry. ","","102-16 89th Avenue","RICHMOND HILL","NY","11418","(718) 849-0311","","Sat: 9:00 AM - 10:00 AM"
"Cardinal McCloskey Family Outreach","Food pantry.","","953 Southern Boulevard","BRONX","NY","10459","(718) 542-0255","","Wed: 9:30 AM - 12:00 PM"
"Cardinal McCloskey Services East Harlem","Food pantry.","","2253 Third Avenue","NEW YORK","NY","10035","(212) 987-1806","","Mon, Wed and  Fri: 9:30 AM - 12:00 PM"
"Cathedral Community Cares Inc. - Cathedral of St. John the Divine","Soup kitchen.","","1047 Amsterdam Avenue ","NEW YORK","NY","10025","(212) 316-7583","","Sun: 10:00 AM - 2:30 PM"
"Catholic Charities","Food pantry.","","2866 West 17th Street","BROOKLYN","NY","11224","(718) 722-6001","","Mon: 9:30 AM - 1:30 PM"
"Center of Hope International","Food pantry.","","38-49 12th Street","LONG ISLAND CITY","NY","11101","(718) 784-4673","","Tue, Wed, Thu: 12:00 PM - 3:00 PM"
"Child Development Support Corporation","Food pantry.","","353-358 Classon Avenue","BROOKLYN","NY","11238","(718) 398-2050","","Thu: 10:00 AM - 12:00 PM"
"Christ Apostolic Church Goke ","Food pantry. This location is open on the 1st and 3rd Tuesday, 2nd and 4th Saturday of each month.","","622 Cortelyou Road","BROOKLYN","NY","11218","(718) 284-7479","","Tue: 6:30 PM 7:30 PM,Sat: 11:00 AM – 2:00 PM"
"Christ Apostolic Church of America, Inc","Food pantry.","","108-02 Sutphin Boulevard","JAMAICA","NY","11435","(718) 658-8981","","Sat: 10:00 AM - 12:00 PM "
"Christ Church International","Food pantry. This location is open on the first and third Saturdays of each month. ","","122-20 Merrill Street","JAMAICA","NY","11434","(718) 276-2799","","Sat: 10:00 AM – 12:00 PM"
"Christ Church United Methodist","Soup kitchen.","","524 Park  Avenue","NEW YORK","NY","10065","(212) 838-3036","","Sun: 4:30 PM - 6:00 PM"
"Christ Disciples International Ministries","Food pantry.","","3021-31 Webster Avenue ","BRONX","NY","10467","(718) 994-5422","","Wed, Sat: 10:30 AM - 1:00 PM"
"Christ Jesus Baptist Church ","Food pantry.","","456 East 168th Street","BRONX","NY","10457","","","Wed: 12:00 PM - 1:30 PM "
"Christ The Rock Church International","Food pantry.","","770-784 Glenmore Avenue ","BROOKLYN","NY","11208","(718) 348-7414","","Wed: 5:00 PM -  6:00 PM"
"Christian Church of Canarsie","Food pantry.","","602 East 89th Street","BROOKLYN","NY","11236","(718) 272-5150","","Sat: 10:00 AM - 1:00 PM"
"Christian Cultural Center","Food pantry.","","1400 Linden Boulevard","BROOKLYN","NY","11212","(718) 306-1000","","Thu: 10:00 AM - 1:00 PM"
"Christian Fellowship Seventh Day Adventist Community Services","Soup kitchen. ","","777 Schenectady Avenue","BROOKLYN","NY","11203","","","Mon - Wed: 5:00 PM - 6:00 PM"
"Christian Fellowship Seventh Day Adventist Community Services","Food pantry. This location is closed on the fifth Wednesday of the month. ","","777 Schenectady Avenue","BROOKLYN","NY","11203","","","Wed: 10:30 AM - 12:30 PM"
"Christian Pentacostal Church","Food pantry.","","900 Richmond Road","STATEN ISLAND","NY","10304","(718) 273-5850","","Tue, Wed: 7:00 PM - 8:00 PM"
"Church of God Brooklyn","Food pantry.","","627-29 Remsen Avenue","BROOKLYN","NY","11236","(718) 346-4897","","Sat: 1:00 PM - 2:30 PM"
"Church of God Feeding the Hungry","Food pantry.","","836 Classon Avenue","BROOKLYN","NY","11238","(718) 230-8277","","Thu: 11:30 AM - 1:30 PM"
"Church of God Seventh Day Pentecostal","Food pantry.","","922 St. Marks Avenue","BROOKLYN","NY","11213","(718) 221-9718","","Tue: 5:00 PM - 6:30 PM"
"Church of God Seventh Day Pentecostal","Soup kitchen.","","922 St. Marks Avenue","BROOKLYN","NY","11213","(718) 221-9718","","Wed: 5:00 PM - 7:00 PM"
"Church of God of Salvation","Food pantry.","","1615 Nostrand Avenue","BROOKLYN","NY","11226","(718) 941-8195","","Tue, Thu: 9:00 - 11:00 AM"
"Church of God, Inc","Food pantry. ","","1011 Winthrop Street","BROOKLYN","NY","11212","(718) 493-3031","","Sat: 1:30 PM - 2:30 PM"
"Church of Notre Dame","Food pantry. ","","405 West 114th Street","NEW YORK","NY","10028","(212) 866-1500","","Tue: 2:00 PM - 4:00 PM"
"Church of Praise and Worship God in Christ","Food pantry.","","526 Ralph Avenue","BROOKLYN","NY","11233","(347) 462-5679","","Sat: 12:30 PM - 2:30 PM"
"Church of the Annunciation","Food pantry.","","88 Convent Avenue","NEW YORK","NY","10027","(212) 234-1919","","Tue: 1:00 PM - 2:00 PM"
"Church of the Crucifixion","Food pantry.","","459 West 149th Street","NEW YORK","NY","10031","(212) 281-0900","","Wed: 10:00 AM - 1:00 PM"
"Coalition for the Homeless","Soup kitchen.","","108 East 51st Street","NEW YORK","NY","10022","(212) 369-9220","","Mon - Sun: 6:00 PM - 7:00 PM"
"Come World Ministries, Inc","Food pantry.","","1034 Prospect Avenue","BRONX","NY","10459","(646) 337-0132","","Wed: 9:00 AM - 11:00 AM; Sat: 12:00 PM - 2:00 PM"
"Come World Ministries, Inc","Soup kitchen.","","1034 Prospect Avenue","BRONX","NY","10459","(646) 337-0132","","Sat: 12:00 PM - 2:00 PM"
"Community Alliance Initiative","Food pantry.","","60-85 Myrtle Avenue ","RIDGEWOOD","NY","11385","(718) 305-4888","","Wed: 10:00 AM - 12:00 PM "
"Community Health Action of Staten Island","Food pantry.","","2134 Richmond Terrace","STATEN ISLAND","NY","10302","(718) 808-1840","","Wed: 10:00 AM - 1:00 PM, 2:00 PM - 4:00 PM"
"Community Impact","Food pantry.","","601 West 114th Street","NEW YORK","NY","10025","(212) 864-6100","","Mon, Thu: 12:30 PM - 2:00 PM"
"Community League Of The Heights","Food pantry.","","508 West 159th Street","NEW YORK","NY","10032","(212) 795-4779","","Wed: 9:00 AM - 11:00 AM; Sat: 
9:00 AM - 11:00 AM"
"Community Services Housing Development Corporation","Food pantry. ","","547 Howard Avenue","BROOKLYN","NY","11233","(646) 794-5961","","Thu: 10:00 AM - 12:00 PM"
"Compassion House CDC","Soup kitchen.","","43 George Street","BROOKLYN","NY","11206","(718) 386-8151","","Tue: 8:00 AM - 9:30 AM, 12:00 PM - 1:00 PM; Thu: 9:00 AM - 11:30 AM"
"Convent Avenue Baptist Church","Food pantry.","","425 West 144th Street ","NEW YORK","NY","10031","(212) 234-6767","","Mon, Thu: 9:00 AM - 12:00 PM"
"Cornerstone Baptist Food Pantry","Food pantry.","","562-574 Madison Street","BROOKLYN","NY","11221","(718) 574-5248","","Tue: 11:00 AM - 1:00 PM"
"Corona Seventh Day Adventist Church","Food pantry.","","35-30 103rd Street","CORONA","NY","11368","(718) 651-4534","","Sun: 12:00 PM - 2:00 PM"
"Corpus Christi Food Pantry","Food pantry.","","31-30 61st Street","WOODSIDE","NY","11377","(718) 278-8114","","Wed: 11:00 AM - 1:00 PM"
"Council of Jewish Organizations Staten Island","Food pantry with kosher food.","","984 Post Avenue","STATEN ISLAND","NY","10302","(718) 720-4047","","Mon, Wed, Fri: 10:00 - 2:00 PM; 
Tue, Thu: 12:00 PM - 2:00 PM; 
Sun: 9:00 AM - 11:00 AM"
"Creston Avenue Baptist Church, Inc","Food pantry. ","","114 East 188th Street","BRONX","NY","10468","(718) 367-1754","","Sat: 12:00 PM - 2:00 PM"
"Creston Avenue Baptist Church, Inc Food Provider II","Soup kitchen. ","","114 East 188th Street","BRONX","NY","10468","(718) 367-1754","","Sat: 12:00 PM - 2:00 PM"
"Crossroad's Community Services","Food pantry.","","108 East 51st Street","NEW YORK","NY","10022","(212) 378-0231","","Thu: 12:00 PM - 3:00 PM"
"Crossroad's Community Services Inc","Soup kitchen.","","108 East 51st Street","NEW YORK","NY","10022","(212) 378-0231","","Mon - Fri, Sun: 5:30 PM - 6:30 PM; Mon, Wed, Sun: 7:00 AM - 8:30 AM; Sat: 9:30 AM - 11:00 AM "
"Crown Heights Jewish Community Council","Food pantry with kosher food. ","","877 Montgomery Street","BROOKLYN","NY","11213","(718) 771-9000","","Wed: 1:30 PM - 3:00 PM"
"Cuyler Warren United Methodist Church","Food pantry.","","450 Warren Street","BROOKLYN","NY","11217","(718) 875-8502","","Tue: 1:30 PM - 2:45 PM"
"Deliverance Temple Church of Jesus Christ","Food pantry.","","134-10 Rockaway Boulevard ","SOUTH OZONE PARK","NY","11420","(718) 529-1993","","Tue: 5:30 PM - 6:30 PM"
"Department of Probation Bronx Office","Food pantry.","","198 East 161st Street","BRONX","NY","10451","(718) 802-4500","","Fri: 10:00 AM - 1:00 PM"
"Department of Probation Brooklyn Office ","Food pantry.","","345 Adams Street","BROOKLYN","NY","11201","(718) 488-3640","","Fri: 10:00 AM - 1:00 PM"
"Department of Probation Manhattan Office ","Food pantry.","","127 West 127th Street","NEW YORK","NY","10027","(212) 851-1403","","Mon: 11:00 AM - 2:00 PM"
"Department of Probation Queens Office ","Food pantry.","","162-24 Jamaica Avenue ","QUEENS","NY","11432","(718) 657-2544","","Fri: 10:00 AM - 1:00 PM"
"Department of Probation Staten Island Office","Food pantry.","","340 Bay Street","STATEN ISLAND","NY","10301","(718) 876-7395","","Wed: 10:00 AM - 1:00 PM"
"Dewitt Reformed Church","Food pantry.  ","","280 Rivington Street","NEW YORK","NY","10002","(212) 674-3341","","Mon, Thu: 10:00 AM - 12:00 PM"
"East New York Wesleyan Church - New Hope Family Worship Center","Food pantry.","","817 Livonia Avenue","BROOKLYN","NY","11207","(718) 456-1305","","Sat: 10:00 AM - 12:00 PM"
"Eastchester Presbyterian Church","Soup kitchen.","","3154 Fish Avenue","BRONX","NY","10469","(718) 798-1855","","Thu: 5:30 PM - 6:30 PM"
"Ebenezer Seventh Day Adventist Church","Soup kitchen. ","","1234 East New York Avenue","BROOKLYN","NY","11212","(718) 778-7900","","Sun: 12:30 PM - 2:00 PM"
"Ebenezer Seventh Day Adventist Church","Food pantry.","","1234 East New York Avenue","BROOKLYN","NY","11212","(718) 778-7900","","Wed: 10:30 AM - 12:00 PM"
"El Amanecer de la Esperanza Ministry, Inc Food Provider","Food pantry. This location will be closed on Friday, April 29, 2016. ","","1769 East 172nd Street","BRONX","NY","10472","(347) 270-8374","","Fri: 9:00 AM - 12:00 PM "
"Elmcor Youth and Adult Activities","Food pantry.","","33-16 108th Street","CORONA","NY","11368","(718) 651-0096","","Wed: 1:30 PM - 2:30 PM"
"Elohim Community Development and Outreach, Inc","Food pantry.","","87-47 111th Street","RICHMOND HILL","NY","11418","(917) 418-7906","","Fri: 9:00 AM - 11:00 AM"
"Emanuel Pentecostal Faith Church","Food pantry.","","1310 Elder Avenue","BRONX","NY","10472","(718) 842-4092","","Wed: 5:00 PM  - 6:00 PM"
"Every Day is a Miracle","Food pantry.","","411 East 143rd Street","BRONX","NY","10455","(646) 671-4360","","Fri: 12:00 PM - 1:30 PM"
"Faith Center for Human Services, Inc","Soup kitchen. ","","1014-18 Gates Avenue","BROOKLYN","NY","11221","(347) 614-3235","","Sat: 9:30 AM - 12:00 PM"
"Faith Center for Human Services, Inc","Food pantry. ","","1014-18 Gates Avenue","BROOKLYN","NY","11221","(347) 614-3235","","Sat: 9:30 AM - 12:00 PM"
"Family Life Development Center","Food pantry. ","","1476 Bedford Avenue","BROOKLYN","NY","11216","(718) 636-4938","","Mon: 4:00 PM - 6:00 PM"
"Family Service Network of NY, Inc","Food pantry.","","1420 Bushwick Avenue","BROOKLYN","NY","11207","(718) 455-6010","","Mon, Wed: 9:00 AM - 1:00 PM"
"Father Creavins Food Pantry","Food pantry.","","276 West 151st Street","NEW YORK","NY","10039","(212) 281-2100","","Tue: 9:00 AM - 10:00 AM"
"Feeding with TLC Inc ","Soup kitchen.","","309 St. Pauls Avenue","STATEN ISLAND","NY","10304","(718) 447-0526","","Sat: 11:00 AM - 1:00 PM"
"Feeding with TLC Inc ","Food pantry.","","309 St. Pauls Avenue","STATEN ISLAND","NY","10304","(718) 447-0526","","Sat: 12:00 PM - 1:00 PM"
"Fernanda Valme Ministries Inc.","Food pantry.","","1120 Flatbush Avenue","BROOKLYN","NY","11226","(718) 284-1809","","Thu: 10:00 AM - 11:00 AM"
"First Baptist Church","Soup kitchen.","","100-10 Astoria Boulevard","EAST ELMHURST","NY","11369","(718) 446-0200","","Wed: 12:00 PM - 1:45 PM"
"First Church of God in Christ","Soup kitchen.","","187-10 Baisley Boulevard","SAINT ALBANS","NY","11412","(718) 712-4831","","Wed: 12:00 PM - 1:30 PM"
"First Church of God in Christ, Inc","Food pantry.","","187-10 Baisley Boulevard","SAINT ALBANS","NY","11412","(718) 718-4831","","Thu: 1:30 PM - 3:30 PM"
"First Presbyterian Church of Jamaica","Soup kitchen.","","89-60 164th Street","JAMAICA","NY","11432","(718) 526-4775","","Wed: 5:30 PM - 6:30 PM"
"First Presbyterian Church of Jamaica","Food pantry.","","89-60 164th Street","JAMAICA","NY","11432","(718) 526-4775","","Tue: 10:00 AM - 12:00 PM"
"First Presbyterian Church of Springfield Gardens","Food pantry.","","216-02 137th Avenue","SPRINGFIELD GARDENS","NY","11413","(718) 528-7744","","Wed: 11:00 AM - 12:00 PM"
"First Presbyterian Russell Sage Memorial Church ","Food pantry.","","896 Central Avenue","FAR ROCKAWAY","NY","11691","(718) 327-2440","","Sat: 9:30 AM - 10:30 AM"
"First United Methodist Church of Jamaica","Food pantry.","","162-10 Highland Avenue","JAMAICA","NY","11432","(718) 739-2269","","Mon: 8:30 AM - 9:30 AM"
"Food Bank for New York City Food for Survival","Soup kitchen.","","252 West 116th Street","NEW YORK","NY","10026","(212) 665-8747","","Mon - Thurs: 4:00 PM - 6:00 PM"
"Food Bank for New York City Food for Survival","Food pantry.","","252 West 116th Street","NEW YORK","NY","10026","(212) 665-8747","","Tue: 10:00 AM - 3:00 PM; Wed: 3:00 PM - 6:00 PM; Thu: 10:00 AM - 2:00 PM"
"Food First, Inc","Food pantry.","","165 Conover Street","BROOKLYN","NY","11231","(718) 624-1950","","Wed: 11:00 AM - 1:00 PM"
"Food Mart","Food pantry.","","729 Delafield Avenue","STATEN ISLAND","NY","10310","(718) 816-1811","","Tue, Thu: 10:00 AM - 2:00 PM"
"Forest Hills Senior Center ","Food pantry. This location is open on the 2nd, 3rd, 4th, and 5th Thursdays of each month.
","","108-25 62nd Drive","FOREST HILLS","NY","11375","(718) 699-1010","","Thurs: 8:30 AM – 9:30 AM"
"Franciscan Community Center at Holy Name","Food pantry.","","207 West 96th Street","NEW YORK","NY","10025","(212) 932-8040","","Mon, Tue: 1:00 PM - 3:30 PM"
"Fraternite Notre Dame","Food pantry.  ","","2290 First Avenue","NEW YORK","NY","10035","(212) 876-5855","","Fri: 2:00 PM - 4:00 PM"
"Fraternite Notre Dame","Soup kitchen.  ","","2290 First Avenue","NEW YORK","NY","10035","(212) 876-5855","","Tue - Fri: 10:30 AM - 1:00 PM"
"Friendly Hands Ministry Inc.","Food pantry.","","229 East 118 Street","NEW YORK","NY","10035","(646) 360-4418","","Wed: 9:00 AM - 12:00 PM"
"GMHC Nutrition and Wellness Program","Food pantry offering an HIV/AIDS diet. 
","","446 West 33rd Street","NEW YORK","NY","10001","(212) 367-1409","","Mon: 11:00 AM - 2:00 PM; Wed: 1:00 PM - 4:00 PM; Thu: 11:00 AM - 2:00 PM"
"Gay Mens Health Crisis (GMHC)","Soup kitchen offering an HIV/AIDS diet.","","446 West 33 Street","NEW YORK","NY","10011","(212) 367-1257","","Mon - Thu: 12:00 PM - 2:45 PM; Fri: 5:00 PM - 7:30 PM"
"Gethsemane Baptist Church","Food pantry.","","771 Fairmount Place","BRONX","NY","10460","(718) 294-7129","","Thu: 7:30 AM - 9:30 AM"
"Gethsemane Seventh Day Adventist Church","Food pantry. ","","357 Empire Boulevard ","BROOKLYN","NY","11225","(347) 296-7573","","Sun: 12:00 PM - 1:00 PM "
"Gethsemane Soul Saving Station","Food pantry.","","145-41 228th Street","SPRINGFIELD GARDENS","NY","11413","(718) 949-8662","","Wed: 1:00 PM - 2:00 PM"
"Give Them to Eat","Soup kitchen.","","800 East 156th Street","BRONX","NY","10455","(718) 993-8378","","Tue: 2:00 PM - 4:00 PM, Thu: 12:00 PM - 2:00 PM, Fri: 11:00 AM - 2:00 PM"
"Give Them to Eat Food Provider","Food pantry. ","","800 East 156th Street","BRONX","NY","10455","(718) 993-8961","","Fri: 11:00 AM - 2:00 PM"
"God's Battalion of Prayer Church","Food pantry. ","","661 Linden Boulevard","BROOKLYN","NY","11203","(718) 774-5447","","Tue, Thu: 9:30 AM - 12:00 PM"
"God's Deliverance Temple, Inc","Food pantry. ","","438 Ralph Avenue","BROOKLYN","NY","11233","(347) 234-3828","","Tue: 11:00 AM - 12:00 PM"
"Good News Deliverance Tabernacle","Food pantry.  ","","442 Cleveland Street","BROOKLYN","NY","11208","(718) 235-0065","","Sat: 11:00 AM - 1:00 PM"
"Good Shepherd Food Pantry","Food pantry.","","104 Cooper Street","NEW YORK","NY","10034","(212) 567-1300","","Sat: 7:30 AM - 9:00 AM"
"Gospel Hill Baptist Church","Food pantry. This location is open on the 1st, 2nd, and 3rd Tuesday of each month.
","","3265 Third Avenue","BRONX","NY","10456","(718) 585-6730","","Tue: 10:30 AM - 12:30 PM"
"Grace Episcopal Church","Soup kitchen.","","1909 Vyse Avenue","BRONX","NY","10460","(718) 542-1946","","Thu: 9:00 AM - 12:00 PM"
"Grand Central Neighborhood Social Service Corporation","Soup kitchen.","","120 East 32nd Street","NEW YORK","NY","10016","(212) 883-0680","","Mon - Sun: 6:30 AM - 7:30 AM, 12:00 PM - 1:30 PM, 4:00 PM - 6:00 PM"
"Grand Concourse SDA Church","Food pantry. ","","1275 Grand Concourse","BRONX","NY","10452","(718) 681-2232","","Wed: 2:30 PM - 4:00 PM"
"Greenpoint Reformed Church Food Pantry","Food pantry.","","136 Milton Street","BROOKLYN","NY","11222","(718) 383-5941","","Thu: 8:00 AM - 11:00 AM"
"HO Scott Education and Community Center, Inc","Soup kitchen.","","15-10 Redfern Avenue ","FAR ROCKAWAY","NY","11691","(718) 327-2208","","Tue: 12:00 PM - 2:00 PM"
"Hanson Place Seventh Day Adventist Church","Food pantry.","","150 South Portland Avenue","BROOKLYN","NY","11217","(718) 399-7513","","Thu: 3:00 PM - 5:00 PM"
"Harlem Community Nutritional","Food pantry.","","132 West 125th Street","NEW YORK","NY","10027","(212) 666-7538","","Mon - Thu: 10:00 AM - 11:30 AM"
"Harlem Dowling West Side Center Specialized Service","Food pantry.","","2090 Adam Clayton Powell Jr.","NEW YORK","NY","10027","(212) 749-3656","","Tue: 12:00 PM - 2:00 PM; Fri: 2:00 PM - 4:00 PM ( Only 1st, 2nd, 3rd Friday of each month)"
"Harvest Of Souls Holy Ghost Food Pantry","Non-profit food pantry.","","13-15 East 125th Street","NEW YORK","NY","10035","(212) 369-6354","","Fri: 10:00 AM - 12:00 PM"
"Heavenly Vision Christian Center Food Provider","Food pantry.","","2868 Jerome Avenue","BRONX","NY","10468","(718) 220-8124","","Tue: 9:00 AM - 11:00 AM"
"Hebron Seventh Day Adventist Church","Food pantry. This location is open on the 1st and 3rd Wednesday of each month.","","1256 Dean Street","BROOKLYN","NY","11216","(718) 778-6454","","Wed: 9:00 AM - 10:30 AM"
"Hebron Seventh Day Adventist Church","Food pantry.","","1256 Dean Street","BROOKLYN","NY","11216","(718) 778-6454","","Sun: 12:30 PM - 2:00 PM"
"Hollis Avenue Congregational Church","Food pantry. ","","211-04 Hollis Avenue","QUEENS VILLAGE","NY","11429","(718) 468-1498","","Tue: 11:00 AM - 1:00 PM"
"Hollis Presbyterian Chruch","Food pantry.","","100-50 196th Street","HOLLIS","NY","11423","(718) 776-4646","","Mon: 11:00 AM - 12:00 PM"
"Holy Apostles Soup Kitchen","Soup kitchen.","","296 Ninth Avenue","NEW YORK","NY","10001","(212) 924-0167","","Mon - Fri: 10:30 AM - 12:30 PM"
"Holy Cross Church","Food pantry. ","","600 Soundview Avenue","BRONX","NY","10473","(718) 893-5550","","Thu: 8:30 AM - 9:30 AM"
"Holy Cross Food Pantry - Brooklyn","Food pantry.","","2530 Church Avenue","BROOKLYN","NY","11226","(718) 469-5900","","Tue, Thu: 2:00 PM - 2:30 PM"
"Holy Ghost Pentecostal Church","Soup kitchen.","","13-15 East 125 Street ","NEW YORK","NY","10035","(212) 369-6354","","Wed: 12:00 PM – 1:30 PM"
"Holy Ghost Upper Room Filling Station Ministry","Food pantry.  ","","146-17 133rd Avenue","JAMAICA","NY","11436","(718) 529-2060","","Sat: 10:00 AM - 11:00 AM"
"Holy Innocents","Food pantry.","","279 East 17th Street","BROOKLYN","NY","11226","(718) 469-9500","","Wed: 9:30 AM - 11:00 AM"
"Holy Tabernacle Church","Soup kitchen.","","3780 Third Avenue","BRONX","NY","10456","(718) 293-9862","","Tue: 4:00 PM - 5:30 PM"
"Holy Tabernacle Church Food Provider I","Food pantry.","","3780 Third Avenue","BRONX","NY","10456","(718) 293-9862","","Tue: 4:30 PM - 5:30 PM"
"Holy Temple Church","Food pantry.","","136-25 Springfield Boulevard","SPRINGFIELD GARDENS","NY","11413","(347) 686-0501","","Sat: 11:00 AM - 12:30 PM"
"Hope Center Development Corporation","Soup kitchen.  This location is open on the 1st, 2nd, 3rd, and 4th Saturdays of each month.
","","409 East 95th Street","BROOKLYN","NY","11212","(718) 385-1043","","Sat: 11:00 AM - 1:30 PM"
"Hope Center Development Corporation","Food pantry. This location is open on the 1st, 2nd, 3rd, and 4th Saturdays of each month.
","","414 East 95th Street","BROOKLYN","NY","11212","(718) 385-1043","","Sat: 11:00 AM - 1:30 PM"
"Hope City Empowerment Center ","Soup kitchen. ","","650-656 Washington Avenue","BROOKLYN","NY","11238","(718) 857-5698","","Tue, Thu, Fri: 12:30 PM - 1:30 PM; Sat: 9:00 AM - 11:00 AM"
"Hope for Our Neighbors in Need Community Meal","Soup kitchen.","","201 west 13 Street","NEW YORK","NY","10011","(212) 243-5470","","Sat: 12:00 PM - 1:30 PM"
"Horeb Seventh Day Adventist Community Services","Food pantry. This location will be closed on Tuesday, April 26.","","520 Kingston Avenue","BROOKLYN","NY","11225","(718) 778-7373","","Tue: 10:00 AM - 11:00 AM"
"Hot Lunch for the Needy - Rush Temple Food Provider","Soup kitchen. ","","119-48 Sutphin Boulevard","JAMAICA","NY","11434","(718) 529-5719","","Wed, Fri: 12:30 PM - 1:30 PM"
"Iglesia Alianza Misionera Ebenezer","Food pantry.","","43-02 38th Street","LONG ISLAND CITY","NY","11101","(718) 729-1944","","Sat: 11:00 AM - 1:00 PM"
"Inspirational Gospel Assembly Food Pantry","Food pantry.","","1211 Brook Avenue","BRONX","NY","10456","(347) 758-6447","","Sat: 11:00 AM - 1:00 PM"
"International Pentecostal City Mission","Food pantry.","","9202-14 Church Avenue","BROOKLYN","NY","11236","(718) 342-9005","","Sat: 2:00 PM - 4:00 PM"
"Iris House","Food pantry offering an HIV/AIDS diet. 
","","2271 2nd Avenue","NEW YORK","NY","10035","(212) 423-9049","","Tue, Thu: 2:00 PM - 4:00 PM"
"Isaiah's Temple Of Mount Hope Food Provider II","Soup kitchen. ","","862 Glenmore Avenue","BROOKLYN","NY","11208","(718) 277-4038","","Tue, Thu: 2:00 PM - 4:00 PM"
"JUSTICE Organization","Food pantry.","","87-43 164th Street ","JAMAICA","NY","11432","(718) 772-7951","","Mon: 9:00 AM - 11:00 AM"
"JUSTICE Organization - Jesus is Justice Mission","Food pantry.","","219 Beach 28th Street","FAR ROCKAWAY","NY","11691","(718) 772-7951","","Wed: 12:00 PM - 2:00 PM"
"Jackson Heights SDA Food Pantry","Food pantry.","","72-25 Woodside Avenue","WOODSIDE","NY","11377","(718) 424-4544","","Wed: 4:00 PM - 5:30 PM"
"Jackson Heights SDA Soup Kitchen","Soup kitchen.","","72-25 Woodside Avenue","WOODSIDE","NY","11377","(718) 424-4544","","Sun: 12:30 PM - 2:00 PM"
"Jamaica Hispanic Seventh Day Adventist Church","Food pantry.","","88-28 161st Street","JAMAICA","NY","11432","(718) 736-8533","","Sun: 9:00 AM - 10:00 AM"
"Jamaica Seventh Day Adventist Church","Food pantry.","","88-28 163rd Street","JAMAICA","NY","11432","(718) 658-9784","","Sun: 9:30 AM - 11:30 AM"
"Jan Hus Presbyterian Church - Homeless Outreach","Soup kitchen.","","351 East 74th Street","NEW YORK","NY","10021","(212) 288-6743","","Tue: 5:45 PM - 7:00 PM"
"Jan Hus Presbyterian Church - Homeless Outreach","Food pantry.","","351 East 74th Street","NEW YORK","NY","10021","(212) 288-6743","","Mon - Fri: 10:00 AM - 4:00 PM"
"Jesus Is the Answer - J.I.T.A. Community Outreach","Food pantry.","","89-17 139 Street","QUEENS","NY","11435","(718) 908-6303","","Tue: 3:00 PM – 5:00 PM; Sat: 3:00 PM – 5:00 PM"
"Jewish Community Council of Canarsie","Food pantry with kosher food.","","1170 Pennsylvania Avenue","BROOKLYN","NY","11239","(718) 922-2474","","Wed: 9:00 AM - 11:00 AM"
"Jewish Community Council of Pelham Parkway","Food pantry with kosher food.","","2157 Holland Avenue","BRONX","NY","10462","(718) 792-4744","","Tue, Wed, Thu:  12:00 PM - 4:00 PM"
"Jewish Community Council of Washington Heights","Food pantry with kosher food.","","121 Bennett Avenue","NEW YORK","NY","10033","(212) 568-5450","","Tue, Wed, Thu: 11:00 AM - 1:00 PM"
"Jewish Institute of Queens","Food pantry with kosher food.","","60-05 Woodhaven Boulevard","ELMHURST","NY","11373","(718) 426-9369","","Fri: 10:30 AM - 12:00 PM"
"Jewish Services Coalition","Food pantry with kosher food.","","1525 Central Avenue","FAR ROCKAWAY","NY","11691","(718) 327-6060","","Mon, Wed: 9:30 AM - 1:30 PM "
"Kehilat Sepahrdim of Ahvat Achim","Food pantry with kosher food.","","150-62 78th Road","FLUSHING","NY","11367","(718) 591-9574","","Sun: 10:00 AM - 4:00 PM; Mon, Wed: 10:00 AM - 2:00 PM"
"King Emmanuel Missionary Baptist Church","Food pantry.","","207A Bainbridge Street","BROOKLYN","NY","11233","(718) 773-1650","","Fri: 10:30 AM - 12:00 PM; Sat: 9:00 AM - 10:30 AM"
"Kingsborough Community College","Food pantry. ","","2001 Oriental Boulevard","BROOKLYN","NY","11235","(718) 368-4660","","Wed: 5:00 PM - 6:00 PM; Sun: 12:00 PM - 1:00 PM except for the fifth Wednesday and Sunday of each month.	
"
"La Jornada","Food pantry.","","135-32 38th Avenue","FLUSHING","NY","11354","(917) 880-5693","","Fri: 4:00 PM – 6:00 PM"
"Las Maravillas del Exodo","Food pantry.","","302 Elton Street","BROOKLYN","NY","11208","(718) 235-4801","","Wed: 11:00 AM - 12:00 PM"
"Lefrak City Jewish Center, Inc","Food pantry with kosher food.","","98-15 Horace Harding Expressway","CORONA","NY","11368","(718) 271-9621","","Tue: 10:00 AM - 12:00 PM"
"Leviticus Church","Food pantry.","","114-12 Van Wyck Expressway","SOUTH OZONE PARK","NY","11420","(718) 322-1095","","Wed: 1:00 PM - 2:00 PM; Sat: 12:00 PM - 1:00 PM"
"Linden Boulevard Church Community Services","Food pantry.","","228-20 137th Avenue","SPRINGFIELD GARDENS","NY","11413","(718) 527-4072","","Sat: 10:00 AM - 12:00 PM"
"Little Sisters of the Assumption","Food pantry.","","333 East 115th Street","NEW YORK","NY","10029","(646) 672-5200","","Wed: 1:30 PM - 3:30 PM"
"Los Redimidos en la Sangre de Cristo","Food pantry.","","609 East 182nd Street","BRONX","NY","10457","(646) 408-3909","","Wed: 1:00 PM - 2:00 PM"
"Lost Sheep Christian Church - Feeding My Sheep Community","Food pantry.","","1104 Elder Avenue","BRONX","NY","10472","(347) 235-3725","","Sat: 2:00 PM - 4:00 PM"
"Love Fellowship Tabernacle, Inc","Food pantry.","","464 Liberty Avenue","BROOKLYN","NY","11207","(718) 235-2266","","Tue: 2:00 PM - 5:00 PM"
"Loyal Baptist Church","Soup kitchen.","","881 East 167th Street","BRONX","NY","10459","(718) 328-3512","","Thu: 11:00 AM - 3:00 PM"
"Macedonia Church Assembly of God Bread of Life","Food pantry.","","340 East 106th Street","NEW YORK","NY","10029","(212) 410-3412","","Fri: 9:00 AM - 10:30 AM"
"Manna Of Life Ministries Inc","Soup kitchen.","","578 East 166th street","BRONX","NY","10456","(347) 577-5788","","Sat: 11:00 AM - 1:00 PM"
"Mesivta of Staten Island","Food pantry.","","1870 Drumgoole Road East","STATEN ISLAND","NY","10309","(718) 356-5412","","Mon: 2:30 PM - 3:30 PM"
"Metropolitan Community Church of NY","Food pantry.","","447 West 36th Street","NEW YORK","NY","10018","(212) 629-7400","","Thu: 9:00 AM - 10:00 AM"
"Metropolitan Council on Jewish Poverty","Food pantry with kosher food.","","5361 Preston Court","BROOKLYN","NY","11234","(718) 763-5318","","Tue, Thu: 10:00 AM - 12:00 PM"
"Momentum Project at Church of God of Prophecy","Food pantry offering an HIV/AIDS diet. 
","","85 East 165th Street","BRONX","NY","10452","(212) 691-8100 x2103","","Mon: 4:00 PM - 7:00 PM; Wed: 11:00 AM - 1:00 PM, 4:00 PM - 7:00 PM"
"Momentum Project at Church of God of Prophecy","Soup kitchen offering an HIV/AIDS diet.","","85 East 165 Street","BRONX","NY","10452","(212) 691-8100 x2103","","Mon: 4:00 PM - 7:00 PM; Wed: 11:00 AM - 1:00 PM, 4:00 PM - 7:00 PM"
"Momentum Project at Lutheran Church of the Risen Christ","Soup kitchen.","","250 Blake Avenue","BROOKLYN","NY","11212","","","Wed: 11:00 AM - 1:30 PM"
"Momentum Project at Lutheran Church of the Risen Christ","Food pantry.","","250 Blake Avenue","BROOKLYN","NY","11212","","","Wed: 11:00 AM - 1:30 PM"
"Momentum Project at St Joseph's Church","Soup kitchen offering an HIV/AIDS diet.","","405 West 125th Street","NEW YORK","NY","10027","(212) 691-8100","","Fri: 3:00 PM - 5:30 PM"
"Momentum Project at St Paul's the Apostle Church","Food pantry offering an HIV/AIDS diet. 
","","405 West 59th Street","NEW YORK","NY","10019","(212) 265-3495","","Wed: 11:30 AM - 12:30 PM, 4:00 PM - 6:30 PM"
"Momentum Project at St Paul's the Apostle Church","Soup kitchen offering an HIV/AIDS diet.","","405 West 59th Street","NEW YORK","NY","10019","(212) 265-3495","","Wed: 11:30 AM - 12:30 PM, 4:00 PM - 6:30 PM"
"Momentum Project at St Peter's Church","Soup kitchen offering an HIV/AIDS diet.","","619 Lexington Avenue","NEW YORK","NY","10022","(212) 691-8100 x2103","","Tue: 11:00 AM - 1:00 PM, 4:00 PM - 7:00 PM"
"Momentum Project at St Peter's Church","Food pantry offering an HIV/AIDS diet. 
","","619 Lexington Avenue","NEW YORK","NY","10022","(212) 691-8100 x2103","","Tue: 11:00 AM - 1:00 PM, 4:00 PM - 7:00 PM"
"Momentum Project at St joseph's Church","Food pantry offering an HIV/AIDS diet. 
","","405 West 125th Street","NEW YORK","NY","10027","(212) 691-8100","","Fri: 3:00 PM - 5:30 PM"
"More Grace Redemptive Center","Food pantry.","","646 Parkside Avenue","BROOKLYN","NY","11226","(718) 693-7074","","Tue: 11:00 AM - 1:00 PM"
"Morris Brown Helping Hand Food Program ","Soup kitchen.","","145-03 Rockaway Boulevard","JAMAICA","NY","11436","(718) 322-7596","","Sat: 1:00 PM - 2:00 PM"
"Morrisania Revitalization Corporation","Food pantry.","","576 East 165th Street","BRONX","NY","10456","(718) 589-7858","","Fri: 10:00 AM - 12:00 PM"
"Mount Horeb Baptist Church","Food pantry. ","","109-20 34th Avenue","CORONA","NY","11368","(718) 639-9066","","Fri: 8:00 AM - 9:30 AM"
"Mount Horeb Baptist Church","Soup kitchen. ","","109-20 34th Avenue","CORONA","NY","11368","(718) 639-9066","","Tue: 12:00 PM - 2:00 PM"
"Mount Olivet Baptist Church Community Meal Program","Food pantry.","","201 Lenox Avenue","NEW YORK","NY","10027","(212) 864-1155","","Tue, Wed: 10:30 AM - 11:30 AM"
"Mount Olivet Food Pantry","Food pantry.","","33-27 97th Street","CORONA","NY","11368","(718) 478-0780","","Wed: 5:30 PM - 6:30 PM"
"Mount Paran Community Development Corp Food Provider I","Food pantry. This location will be closed from Monday, May 2 through Thursday, May 5.","","1665 Broadway ","BROOKLYN","NY","11207","(718) 443-8217","","Tue: 10:30 AM - 11:30 AM"
"Mount Paran Community Development Corp Food Provider II","Soup kitchen. This location will be closed from Monday, May 2 through Thursday, May 5.","","1665 Broadway ","BROOKLYN","NY","11207","(718) 443-8217","","Tue, Wed, Fri: 12:00 PM - 1:00 PM"
"Mount Sinai SDA Church","Food pantry.","","217-10 93rd Avenue","QUEENS VILLAGE","NY","11428","(718) 465-1784","","Wed: 5:00 PM - 7:00 PM"
"Mount Zion African Methodist Episcopal Church Outreach Program","Food pantry. ","","1765 Madison Avenue","NEW YORK","NY","10029","(212) 369-6643","","Fri: 10:00 AM - 11:00 AM"
"Mount Zion African Methodist Episcopal Church Outreach Program","Soup kitchen.","","1765 Madison Avenue","NEW YORK","NY","10029","(212) 369-6643","","Wed: 12:00 PM - 1:00 PM"
"Movement of Pentecostal Christian Church","Food pantry.","","90-92 Summit Street","BROOKLYN","NY","11231","(718) 253-1941","","Sun: 12:30 PM - 2:00 PM"
"National Commission for Jewish Education","Food pantry with kosher food. ","","824 Eastern Parkway","BROOKLYN","NY","11213","(718) 735-0200","","Fri: 12:00 PM - 1:00 PM"
"National Council of Jewish Women","Soup kitchen.","","241 West 72nd Street","NEW YORK","NY","10023","(212) 799-7205","","Sun: 11:30 AM - 12:30 PM; Wed: 5:00 PM - 6:00 PM"
"National Council of Jewish Women","Food pantry.","","241 West 72nd Street","NEW YORK","NY","10023","(212) 799-7205","","Mon: 10:30 PM - 2:00 PM"
"National Sorority of Phi Delta Kappa","Food pantry.","","117-08 Merrick Boulevard","JAMAICA","NY","11434","(718) 723-1119","","Tue, Thu: 4:00 PM - 6:00 PM"
"Nazareth Housing Inc","Food pantry.","","206 East 4th Street","NEW YORK","NY","10009","(212) 477-7017","","Tue: 10:00 AM - 2:00 PM"
"Neighbors Together","Soup kitchen.","","2094 Fulton Street","BROOKLYN","NY","11233","(718) 498-7256","","Mon - Thur: 12:00 PM - 2:00 PM, 4:00 PM - 6:00 PM
Fri: 12:00 PM - 2:00 PM"
"New Alternatives for Children, Inc ","Food pantry.","","37 West 26 Street ","NEW YORK ","NY","10010","(212) 994-7919","","Mon - Fri: 2:00 PM - 5:00 PM"
"New Convenant Community Development","Food pantry.","","1175 Boston Road","BRONX","NY","10456","(718) 328-6072","","Thu: 10:00 AM - 1:00 PM"
"New Life Community Development Corporation","Food pantry.","","82-10 Queens Boulevard ","ELMHURST","NY","11373","(718) 424-0122","","Tue: 6:00 PM - 8:00 PM; Sat: 10:00 AM - 12:00 PM"
"New Life Seventh Day Adventist Church","Food pantry.","","885-87 Thomas Boyland Street","BROOKLYN","NY","11213","(718) 342-1477","","Sun: 8:00 AM - 10:00 AM; Mon: 5:00 PM - 7:00 PM; Tue: 6:00 PM - 8:00 PM
"
"New St John Baptist Church","Food pantry.","","2409 Lorillard Place","BRONX","NY","10458","(718) 220-4148","","Fri: 8:00 AM - 10:00 AM"
"New York City Rescue Mission","Food pantry.","","90 Lafayette Street","NEW YORK","NY","10013","(212) 226-6214","","Mon, Wed, Fri: 1:30 PM - 2:30 PM"
"New York City Rescue Mission","Soup kitchen.","","90 Lafayette Street","NEW YORK","NY","10013","(212) 226-6214","","Mon - Sun: 6:30 AM - 7:00 AM and 5:00 PM - 6:30 PM "
"New York Common Pantry","Soup kitchen.","","8 East 109th Street","NEW YORK","NY","10029","(917) 720-9700","","Mon: 8:00 - 9:30 AM, 4:30 PM - 6:00 PM; Tue: 8:00 AM - 9:30 AM; Wed: 8:00 AM - 9:30 AM, 4:30 PM - 6:00 PM; Thu: 8:00 AM - 9:15 AM; Fri: 8:00 AM - 9:15 AM, 4:30 PM - 6:00 PM"
"New York Common Pantry I","Food pantry.","","8 East 109th Street","NEW YORK","NY","10029","(917) 720-9700","","Wed - Sat: 10:00 AM - 2:30 PM"
"Northeast Brooklyn Department of Social Services","Food pantry.","","376 Throop Avenue ","BROOKLYN","NY","11221","(718) 453-9490","","Tue, Thu: 10:00 AM - 12:00 PM"
"Northeast Conference Community Center Seventh Day Adventist Church","Food pantry.","","99-13 Northern Boulevard","CORONA","NY","11368","(347) 527-2444","","Tue: 12:00 PM - 1:00 PM; Wed: 12:00 PM - 1:00 PM (Seniors Only)"
"One Way Church of Christ","Food pantry.","","216-11 Merrick Boulevard","SPRINGFIELD GARDENS","NY","11413","(718) 525-4260","","Sat: 11:30 AM - 2:00 PM"
"Open Door To Heaven Outreach Ministry Inc","Food pantry. This location is open ONLY every 1st, 2nd, and 3rd Saturday of the month. ","","894 Belmont Avenue","BROOKLYN","NY","11208","(347) 822-0714","","Sat: 12:30 PM - 1:30 PM"
"Other People In Need (OPIN)","Soup kitchen.","","1768 St. Johns Place","BROOKLYN","NY","11233","(718) 498-8845","","Wed: 7:00 PM - 9:00 PM"
"Our Lady of Angels Human Services","Food pantry.","","336 73rd Street","BROOKLYN","NY","11209","(718) 680-6344","","Mon, Wed: 09:30 AM - 1:30 PM "
"Our Lady of Good Counsel Church Staten Island","Food pantry.","","42 Austin Place","STATEN ISLAND","NY","10304","(718) 447-1504","","Sat: 10:00 AM - 11:00 AM"
"Our Lady of Grace Ministry","Food pantry.","","158-10 101st Street","HOWARD BEACH","NY","11414","(718) 845-6635","","Tue, Thu: 10:00 AM - 1:00 PM"
"Our Lady of Grace Parish Ministry","Food pantry. ","","2322 East 4th Street","BROOKLYN","NY","11223","(718) 375-0668","","Mon - Fri: 9:00 AM - 11:30 AM"
"Our Lady of Grace Parish Ministry","Soup kitchen.","","2322 East 4th Street","BROOKLYN","NY","11233","(718) 375-0668","","Wed: 12:00 PM - 12:30 PM; Fri: 9:00 AM - 11:30 AM
"
"Our Lady of Mercy Church","Food pantry.","","680 Mother Gaston Boulevard","BROOKLYN","NY","11212","(718) 346-3166","","Mon, Fri: 9:00 AM - 11:00 AM"
"Our Lady of Miracles - Canarsie Cluster Center","Food pantry.","","757 East 86th Street","BROOKLYN","NY","11236","(718) 257-2400","","Sat: 10:00 AM - 11:30 AM"
"Our Lady of Refuge ","Food pantry.","","290 E 196th Street","BRONX","NY","10458","(718) 367-4690","","Tue, Thu: 9:00 AM - 10:00 AM"
"Our Lady of Refuge Roman Catholic Church ","Food pantry.","","2020 Foster Avenue","BROOKLYN","NY","11210","(718) 434-2090","","Weds: 9:30 AM - 1:00 PM"
"Our Lady of Sorrows","Food pantry. ","","213 Stanton Street","NEW YORK","NY","10002","(212) 673-0900","","Mon, Wed:  11:00 AM - 12:00 PM"
"Park Slope Christian Help","Soup kitchen.","","200 4th Avenue","BROOKLYN","NY","11217","(718) 237-2962","","Mon - Thu: 11:30 AM - 1:00 PM; Sat: 11:30 AM - 2:00 PM"
"Part of the Solution (POTS)","Soup kitchen.","","2759 Webster Avenue","BRONX","NY","10458","(718) 220-4892","","Mon - Sun: 12:30 PM - 3:30 PM"
"Part of the Solution (POTS)","Food pantry.","","2759 Webster Avenue","BRONX","NY","10458","(718) 220-4892","","Mon - Sat: 9:00 AM - 12:00 PM "
"Peniel Haitian Church of the Christian and Missionary Alliance","Food pantry.","","2741 Albermarle Road","BROOKLYN","NY","11226","(718) 469-3685","","Sat: 10:00 AM - 12:00 PM"
"Power Praise and Deliverance Inc.","Food pantry.","","120 East 184 Street","BRONX","NY","10468","(347) 409-0288","","Fri: 2:00 PM - 6:00 PM"
"Project Create - Anthony House","Food pantry. ","","73 Lenox Avenue","NEW YORK","NY","10026","(212) 663-1975","","Wed: 10:00 AM - 12:00 PM"
"Project Hope Charities Inc","This food pantry is open on the 1st and 3rd Thursdays of each month. It will be closed on Saturday, July 4.","","170-20 140th Ave","JAMAICA","NY","11434","(718) 529-0005","","Thur: 5:00 PM - 7:00 PM; Sat: 11:00 AM - 1:00 PM"
"Project Hospitality, Inc","Food pantry.","","514 Bay Street","STATEN ISLAND","NY","10304","(718) 815-0800","","Tue: 9:00 AM - 11:00 AM; 1:00 PM - 3:00 PM, Thu: 9:00 AM - 11:00 AM"
"Project Hospitality, Inc","Soup kitchen.","","514 Bay Street","STATEN ISLAND","NY","10304","(718) 815-0800","","Tue, Thu: 12:00 PM - 1:00 PM"
"Project LEAD","Food pantry with kosher food.","","84-17 Abingdon Road","KEW GARDENS","NY","11415","(718) 495-6210","","Sun: 8:30 AM - 10:30 AM"
"Queens North Family Center","Food pantry.","","23-40 Astoria Boulevard","ASTORIA","NY","11102","(718) 726-9790","","Tue: 9:30 AM - 12:00 PM; Fri: 9:30 AM - 12:00 PM"
"Queensboro Temple Seventh Day Adventist Church ","Non-profit food pantry.","","96-50 222nd Street","QUEENS VILLAGE","NY","11429","(718) 776-8538","","Wed: 3:00 PM - 6:00 PM"
"Quincy Community Service","Food pantry. This location is open on the first and third Saturday of each month, as well as the second and fourth Wednesday of each month.","","84 Quincy Street","BROOKLYN","NY","11238","(718) 638-5227","","Sat, Wed: 9:00 AM - 11:00 AM"
"RHOW Brooklyn Inc","Food pantry. This location is closed on the 1st Saturday of each month.","","360 Schermerhorn Street","BROOKLYN","NY","11217","(718) 875-1858","","Sat: 9:00 AM - 10:30 AM"
"RHOW Brooklyn Inc ","Soup kitchen.","","360 Schermerhorn Street","BROOKLYN","NY","11217","(718) 875-1858","","Mon, Tue, Fri: 9:00 AM - 10:00 AM"
"Rauschenbusch Metro Ministries, Inc","Food pantry. This location is closed on the 5th Saturday of each month.","","410 West 40th Street","NEW YORK","NY","10018","(212) 594-4464","","Sat: 11:00 AM - 11:30 AM "
"Reaching - Out Community Services, Inc","Food pantry.","","7708 New Utrecht Avenue","BROOKLYN","NY","11214","(718) 373-4565","","Mon - Fri: 10:00 AM - 5:00 PM"
"Redeemed Christian Church of God","Food pantry.","","1001-1005 Morris Avenue","BRONX","NY","10456","(718) 293-8996","","Tue: 4:00 PM - 6:00 PM"
"Redeemed Christian Church of God Internal Chapel Food Pantry","Food pantry.","","781 East 93rd Street","BROOKLYN","NY","11236","(347) 955-4403","","Sat: 1:00 PM – 3:00 PM"
"Rescue Ministry or Ministerio Rescate Inc","Food pantry.","","2083 Richmond Terrace","STATEN ISLAND","NY","10302","(718) 448-4454","","Tue: 12:00 AM - 1:00 PM; Thu: 12:00 AM - 1:00 PM"
"Resurrection and Life Pentecostal Church","Food pantry.","","870 East 163rd Street","BRONX","NY","10459","(718) 617-2399","","Tue: 12:00 PM - 1:00 PM; Sat: 10:00 AM - 12:00 PM; Sun: 1:00 PM - 2:00 PM"
"Ridgewood Older Adult Center and Services, Inc ","Non-profit food pantry. This location is closed every first Thursday of the month.","","59-14 70th Avenue","RIDGEWOOD","NY","11385","(718) 456-2000","","Tue: 10:30 AM - 12:30 PM; Wed: 10:30 AM - 12:30 PM (Seniors only); Thu: 10:30 AM - 12:30 PM "
"River Fund","Food pantry. ","","89-11 Lefferts Boulevard ","RICHMOND HILL","NY","11418","(718) 441-1125","","Sat: 8:00 AM - 11:00 AM"
"Riverside Church Food Pantry","Food pantry.","","91 Claremont Avenue","NEW YORK","NY","10027","(212) 870-6760","","Tue - Fri: 09:30 AM - 1:00 PM"
"Rush Temple African Methodist Episcopal Church Food Provider","Food pantry.","","119-48 Sutphin Boulevard","JAMAICA","NY","11434","(718) 529-5719","","Tue: 9:00 AM - 10:00 AM"
"Saint Stephen Outreach, Inc Food Provider","Food pantry.","","874 Myrtle Avenue","BROOKLYN","NY","11206","(718) 938-4532","","Wed, Fri: 9:00 AM - 10:30 AM"
"Saint Stephen Outreach, Inc Food Provider II","Soup kitchen.","","874 Myrtle Avenue","BROOKLYN","NY","11206","(718) 938-4532","","Mon - Fri: 11:00 AM - 1:00 PM"
"Saint Teresa Church - Saint Vincent Depaul Society","Food pantry.","","50-20 45th Street","WOODSIDE","NY","11377","(718) 784-2123","","Tue: 6:00 PM - 7:00 PM"
"Saint Teresa of Avila","Food pantry.","","560 Sterling Place","BROOKLYN","NY","11238","(718) 622-3652","","Thu: 8:00 AM - 11:00 AM"
"Salem United Methodist Church","Soup kitchen.","","2190 Adam Clayton Powell Jr Boulevard","NEW YORK","NY","10026","(212) 278-2700","","Wed: 12:30 PM - 3:00 PM"
"Salem United Methodist Church Food Pantry","Food pantry.","","2190 Adam Clayton Powell Jr Boulevard","NEW YORK","NY","10027","(212) 678-2700","","Fri: 11:00 AM - 1:00 PM"
"Salt and Sea Mission Church","Food pantry. ","","2417-2419 Stillwell Ave","BROOKLYN","NY","11223","(718) 373-3576","","Tues, Thu: 12:00 PM - 2:00 PM"
"Sanctified Church of God, Inc Community Feeding Program ","Non-profit food pantry.","","404 Lefferts Avenue","BROOKLYN","NY","11225","(718) 493-2385","","Sat: 12:00 PM - 1:30 PM"
"Second Chance Deliverance Church, Inc","Food pantry.","","200-12 Hollis Avenue","SAINT ALBANS","NY","11423","(917) 416-3697","","Fri: 12:00 PM – 2:00 PM"
"Second St Paul Church of Christ Disciple of Christ Inc","Food pantry.","","1048 Sutter Avenue","BROOKLYN","NY","11208","(718) 235-8922","","Sat: 10:00 AM - 11:00 AM"
"Sephardic Bikur Holim Food Pantry","Food pantry with kosher food.","","425 Kings Highway","BROOKLYN","NY","11223","(718) 787-1100 x354","","Mon, Wed: 9:00 AM - 12:30 PM; Tue, Thu: 9:00 AM - 12:30 PM, 2:00 PM - 3:30 PM; Fri: 9:00 AM - 11:00 AM "
"Shalom Senior Center Food Provider","Food pantry with kosher food.","","483 Albany Avenue","BROOKLYN","NY","11203","(718) 774-9213","","Mon - Thur: 2:00 PM - 3:00 PM, Fri: 1:00 PM - 2:00 PM"
"Shiloh Church of Christ","Food pantry.","","5-7 West 128th Street","NEW YORK","NY","10027","(212) 534-7292","","Thu: 12:00 PM - 2:00 PM"
"Shiloh Church of Christ","Soup kitchen.","","5-7 West 128th Street","NEW YORK","NY","10027","(212) 534-7292","","Thu: 12:00 PM - 2:00 PM"
"Shiloh Seventh Day Adventist","Food pantry.","","449 Eastern Parkway","BROOKLYN","NY","11216","(718) 771-4103","","Thu: 9:30 AM - 11:30 AM"
"Shiloh Temple Pentecostal Church","Food pantry.","","719 East 223rd Street","BRONX","NY","10466","(718) 882-8909","","Tue: 9:00 AM - 1:00 PM"
"Shiloh Temple Pentecostal Church","Soup kitchen.","","719 East 223rd Street","BRONX","NY","10466","(718) 882-8909","","Thu: 12:00 PM - 1:00 PM, Sun: 9:30 AM - 10:30 AM"
"Shorefront Jewish Community Council","Food pantry with kosher food.","","128 Brighton Beach Avenue ","BROOKLYN","NY","11235","(718) 743-0575","","Mon - Thu: 9:00 AM - 5:00 PM, Fri : 9 AM - 2 PM"
"Siloam Presbyterian Church Food Pantry Food Provider","Food pantry.","","270 Jefferson Avenue","BROOKLYN","NY","11216","(718) 789-7050","","Wed: 10:00 AM - 12:00 PM"
"Soc SVPD at St Catherine's","Food pantry.","","520 Linden Boulevard","BROOKLYN","NY","11203","(718) 282-7162","","Thu: 10:30 AM - 1:30 PM"
"Solid Rock Baptist Church","Food pantry. ","","120 Tompkins Avenue","BROOKLYN","NY","11206","(718) 384-8764","","Mon, Thu: 9:30 AM - 12:00 PM"
"Solid Rock Seventh Day Adventist Church","Food pantry.","","5205 Rockaway Beach Boulevard","FAR ROCKAWAY","NY","11691","(718) 474-9306","","Wed: 10:00 AM - 11:00 AM"
"South Brooklyn Seventh Day Adventist Church Community Service Program","Food pantry.","","42 Prospect Place","BROOKLYN","NY","11217","(718) 783-1662","","Sun: 11:00 AM - 2:00 PM"
"Southern Baptist Church","Soup kitchen.","","12 West 108th Street","NEW YORK","NY","10025","(212) 663-6549","","Wed: 12:00 PM - 1:30 PM"
"St Ann's Church of Morrisania","Food pantry.","","295 St. Ann's Avenue","BRONX","NY","10454","(718) 585-5632","","Wed, Fri: 10:30 AM - 2:00 PM"
"St Ann's Church of Morrisania","Soup kitchen.","","295 St. Ann's Avenue","BRONX","NY","10454","(718) 585-5632","","Sun: 11:30 AM - 2:00 PM"
"St Anthony's Baptist Church ","Soup kitchen.  ","","425 Utica Avenue","BROOKLYN","NY","11213","(718) 778-3459","","Tue, Wed, Thu: 12:00 PM - 1:00 PM"
"St Augustine's American Catholic Church","Food pantry.","","298 Schenectady Avenue","BROOKLYN","NY","11213","(718) 773-1338","","Fri: 12:00 PM - 3:00 PM"
"St Augustine's Church","Food pantry.","","116 6th Avenue","BROOKLYN","NY","11217","(718) 783-3132","","Sat: 10:00 AM - 12:00 PM"
"St Augustine's Food Pantry","Food pantry.","","1168 Franklin Avenue","BRONX","NY","10456","(718) 893-0072","","Sat: 10:30 AM - 1:30 PM"
"St Benedict's Church","Food pantry.","","265 Decatur Street","BROOKLYN","NY","11233","(718) 778-8700","","Wed: 11:00 AM - 1:00 PM"
"St Cecilia's Parish Services","Food pantry.","","125 East 105th Street","NEW YORK","NY","10029","(212) 348-0488","","Wed, Thu: 9:30 AM - 11:00 AM"
"St Charles Borromeo Church","Food pantry.","","211 West 141st Street","NEW YORK","NY","10030","(212) 281-2100","","Sat: 8:30 AM - 10:00 AM"
"St Edmund's Youth Programs","Food pantry.","","1905 Morris Avenue","BRONX","NY","10453","(718) 466-9370","","Thu: 12:00 PM - 2:00 PM"
"St Edward's Food Pantry","Food pantry.","","6581 Hylan Boulevard","STATEN ISLAND","NY","10309","(718) 984-1625","","Mon, Wed, Sat: 10:00 AM - 1:00 PM"
"St John's Bread and Life Food Pantry","Soup kitchen.","","795 Lexington Avenue","BROOKLYN","NY","11206","(718) 574-0058","","Mon - Fri: 8:00 AM - 9:30 AM, 10:30 AM - 12:30 PM"
"St John's Bread and Life Food Pantry","Food pantry.","","795 Lexington Avenue","BROOKLYN","NY","11206","(718) 574-0058","","Mon - Thu: 9:00 AM - 10:30 AM"
"St John's Bread of Life","Food pantry.","","213 West 30th Street","NEW YORK","NY","10001","(212) 564-9070","","Wed: 12:15 PM - 2:30 PM"
"St Joseph's Soup Kitchen","Soup kitchen.","","371 6th Avenue","NEW YORK","NY","10014","(212) 741-1274","","Sat: 1:30 PM - 3:00 PM"
"St Luke's Baptist Church","Food pantry. ","","133-28 232nd Street","SPRINGFIELD GARDENS","NY","11413","(718) 276-7066","","Wed: 12:00 PM - 1:00 PM"
"St Luke's Senior Community Program","Food pantry. Open every 1st and 2nd Wednesday. ","","777 East 222nd Street","BRONX","NY","10467","(718) 882-3060","","Wed: 10:00 AM - 1:00 PM"
"St Luke's Senior Community Program","Soup kitchen.","","777 East 222nd Street","BRONX","NY","10467","(718) 882-3060","","Mon - Fri: 12:00 PM - 1:00 PM"
"St Margaret Mary Church","Food pantry.","","9-18 27th Avenue","ASTORIA","NY","11102","(718) 721-9020","","Tue, Wed, Thur: 11:00 AM - 12:00 PM"
"St Mark the Evangelist Church","Food pantry. ","","65 West 138th Street","NEW YORK","NY","10037","(212) 281-4931","","Sat: 10:00 AM - 11:00 AM, 12:00 PM - 1:00 PM, except for the fifth Saturday of each month."
"St Mark's African Methodist Episcopal The Voices of Hagar","Food pantry.","","95-18 Northern Boulevard","JACKSON HEIGHTS","NY","11372","(718) 205-0506","","Tue: 12:00 PM - 2:30 PM"
"St Mark's Church of Christ","Soup kitchen. ","","439 Ralph Avenue","BROOKLYN","NY","11233","(718) 467-3719","","Mon, Wed, and Fri: 12:00 PM - 1:00 PM"
"St Mary Star of the Sea","Food pantry.","","19-20 New Haven Avenue","FAR ROCKAWAY","NY","11691","(718) 327-1133","","Tue, Fri: 1:00 PM - 2:30 PM"
"St Mary's Episcopal Church","Food pantry.","","521 West 126th Street","NEW YORK","NY","10027","(212) 864-4013","","Mon: 4:30 PM - 6:00 PM"
"St Matthew's Roman Catholic Church","Food pantry.","","1342 Lincoln Place","BROOKLYN","NY","11213","(718) 774-6747","","Tue (1st, 2nd, 3rd, 4th): 9:00 AM - 12:00 PM"
"St Nicholas of Tolentine Church - Food Pantry","Food pantry.","","150-75 Goethals Avenue","JAMAICA","NY","11432","(718) 969-3226","","Thu: 9:00 AM - 12:00 PM"
"St Paul Pentecostal Church","Food pantry.","","133 Thomas S Boyland Street","BROOKLYN","NY","11233","(917) 604-9644","","Sat: 11:00 AM - 1:00 PM"
"St Paul's House, Inc","Food pantry.","","335 West 51st Street","NEW YORK","NY","10019","(212) 265-5433","","Tue: 10:00 AM - 11:30 AM"
"St Paul's Lutheran Church","Food pantry.","","1891 Mcgraw Avenue","BRONX","NY","10462","(718) 822-4535","","Fri: 8:00 AM - 10:00 AM"
"St Peter's Church Breakfast Program","Soup kitchen.","","619 Lexington Avenue","NEW YORK","NY","10022","(212) 935-2200","","Tue: 6:00 AM - 8:00 AM "
"St Peter's Food Pantry","Food pantry.","","346 West 20th Street","NEW YORK","NY","10011","(212) 929-2390","","Wed: 10:00 AM - 11:00 PM; Sat: 10:30 AM - 11:30 AM"
"St Philip's Christian Church","Food pantry.","","765 Lafayette Avenue","BROOKLYN","NY","11221","(718) 453-0691","","Thu: 12:30 PM - 2:30 PM"
"St Raphael's Church Food Pantry","Food pantry. ","","35-20 Greenpoint Avenue","LONG ISLAND CITY","NY","11101","(718) 729-8957","","Thu: 10:30 AM - 12:00 PM; Sat: 1:30 PM - 3:00 PM"
"St Teresa of Avila Community Services","Food pantry.","","129-04 109th Avenue","SOUTH OZONE PARK","NY","11420","(718) 529-3587","","Mon, Thu: 9:00 AM -11:00 AM"
"St Therese of Lisiuex Roman Catholic Church","Food pantry.","","4410 Avenue D","BROOKLYN","NY","11203","(718) 451-0683","","Tue: 10:30 AM - 12:00 PM"
"Stapleton United African Methodist Episcopal Church","Soup kitchen.","","49 Tompkins Avenue","STATEN ISLAND","NY","10304","(718) 273-2857","","Mon: 3:00 PM - 4:00 PM; Wed: 12:00 PM - 1:00 PM"
"Staten Island Seventh Day Adventist Church","Food pantry.","","80 Union Avenue","STATEN ISLAND","NY","10303","(718) 442-4806","","Sun: 10:00 AM - 2:00 PM"
"Sunset Park Emergency Food Program","Food pantry.","","443 39th Street","BROOKLYN","NY","11232","(718) 492-3585","","Tue: 10:00 AM - 1:00 PM; Wed and Thu: 11:00 AM - 1:00 PM"
"Tabernacle of Prayer","Food pantry.","","90-07 Merrick Boulevard","JAMAICA","NY","11432","(718) 657-4210","","Fri: 10:00 AM - 11:00 AM"
"Taurus Associates, Inc","Food pantry.","","230-04 Edgewood Avenue","SPRINGFIELD GARDENS","NY","11413","(718) 526-2177","","Tue: 9:30 AM - 11:00 AM"
"Teen Challenge","Soup kitchen. ","","444 Clinton Avenue ","BROOKLYN","NY","11238","(718) 789-1414 x243","","Mon, Wed, Thu: 10:30 AM - 11:45 AM and 3:30 PM - 4:45 PM"
"Temple Shaaray Tefila","Soup kitchen.","","250 East 79th Street","NEW YORK","NY","10021","(212) 535-8008","","Wed: 12:00 PM - 1:00 PM"
"The Church of Saint Mark","Food pantry.  ","","1417 Union Street","BROOKLYN","NY","11213","(718) 756-6607","","Mon: 5:00 PM - 8:00 PM"
"The Church of the Village-Hope For Our Neighbors In Need","Food pantry.","","201 West 13th Street","NEW YORK","NY","10011","(212) 243-5470","","Tue: 1:00 PM - 2:30 PM"
"The Community Food Pantry ","Food pantry with kosher food. This location is open on Tuesdays, Thursdays, and the first Saturday of the month. ","","1363 Ogden Avenue","BRONX","NY","10452","(718) 960-2262","","Tue: 10:00 AM - 12:00 PM; Thurs: 1:00 PM - 3:00 PM; Sat: 10:00 AM - 12:00 PM"
"The Harding Food Vision Inc.","Soup kitchen. ","","157-22 South Road","JAMAICA","NY","11433","(718) 291-9281","","Wed: 10:00 AM - 12:00 PM"
"The Harding Food Vision Inc.","Food pantry.","","157-22 South Road","JAMAICA","NY","11433","(718) 291-9281","","Mon: 3:00 PM - 5:00 PM; Wed: 10:00 AM - 2:00 PM"
"The Salvation Army Astoria Corps","Food pantry.","","45-18 Broadway","ASTORIA","NY","11103","(718) 721-9046","","Wed: 9:30 AM - 10:30 AM"
"The Salvation Army Bedford Temple Corps","Food pantry.","","601 Lafayette Avenue","BROOKLYN","NY","11216","(718) 622-9020","","Wed: 10:00 AM - 12:00 PM"
"The Salvation Army Bronx Citadel","Food pantry.","","425 East 159th Street","BRONX","NY","10451","(718) 665-8472","","Tue: 10:30 AM - 12:30 PM"
"The Salvation Army Bronx Citadel","Soup kitchen.","","425 East 159th Street","BRONX","NY","10451","(718) 665-8472","","Mon, Wed, Fri: 1:00 PM - 2:00 PM"
"The Salvation Army Bushwick Corps","Soup kitchen.","","1151 Bushwick Avenue","BROOKLYN","NY","11221","(718) 455-4102","","Mon, Tues, Thurs, Fri: 12:30 PM - 2:00 PM"
"The Salvation Army Bushwick Corps","Food pantry.","","1151 Bushwick Avenue","BROOKLYN","NY","11221","(718) 455-4102","","Mon, Tue, Thu, Fri: 10:00 AM - 12:00 PM"
"The Salvation Army Jamaica Citadel Corps","Soup kitchen.","","90-23 161st Street","JAMAICA","NY","11432","(718) 297-4860","","Mon - Wed: 12:00 PM - 1:00 PM"
"The Salvation Army Jamaica Citadel Corps","Food pantry.","","90-23 161st Street","JAMAICA","NY","11432","(718) 297-4860","","Thu: 10:00 AM - 11:00 AM"
"The Salvation Army Manhattan Citadel","Food pantry.","","145 East 125th Street","NEW YORK","NY","10035","(212) 860-3200","","Mon - Fri: 9:00 AM - 4:00 PM"
"The Salvation Army New York Corps","Food pantry.","","132 West 14th Street","NEW YORK","NY","10011","(212) 337-7467","","Mon-Fri: 9:00 AM - 3:00 PM"
"The Salvation Army New York Temple Corps","Food pantry.","","132 West 14th Street","NEW YORK","NY","10011","(212) 337-7467","","Mon - Fri: 9:30 AM - 11:00 AM; 1:30 PM - 3:00 PM"
"The Salvation Army Stapleton Corps","Soup kitchen.","","15 Broad Street","STATEN ISLAND","NY","10304","(718) 448-8480","","Mon and Fri: 11:00 AM - 12:00 PM"
"The Salvation Army Sunset Park Corps","Soup kitchen.","","520 50th Street","BROOKLYN","NY","11220","(718) 438-1771","","Mon - Fri: 12:00 PM - 1:00 PM"
"The Salvation Army Sunset Park Corps","Food pantry.","","520 50th Street","BROOKLYN","NY","11220","(718) 438-1771","","Tue - Fri: 9:00 AM - 3:00 PM"
"The Salvation Army Temple Corps","Soup kitchen.","","86-07 35th Avenue","JACKSON HEIGHTS","NY","11372","(718) 335-3693","","Tue: 12:00 PM - 1:00 PM"
"Thessalonia Baptist Church ","Food pantry.","","941 Rev James A Polite Avenue","BRONX","NY","10459","(718) 542-0828","","Tue: 10:30 AM - 11:30 AM"
"Thorpe Family Residence","Food pantry.","","406 East 184th Street","BRONX","NY","10457","(718) 295-2550","","Wed: 8:30 AM - 9:30 AM"
"Thurston Memorial Outreach Ministries","Soup kitchen.","","1243 Bushwick Avenue","BROOKLYN","NY","11221","(718) 452-3646","","Fri: 5:00 PM - 7:30 PM"
"Thurston Memorial Outreach Ministries","Food pantry.","","1243 Bushwick Avenue","BROOKLYN","NY","11221","(718) 452-3646","","Fri: 5:00 PM - 7:30 PM"
"Tolentine Zeiser Community Life","Food pantry.","","2345 University Avenue","BRONX","NY","10468","(718) 220-2824","","Wed: 9:00 AM - 11:00 AM"
"Tolentine Zeiser Community Life Center","Food pantry. ","","1261 Shakespeare Avenue","BRONX","NY","10452","(917) 549-8958","","Fri: 9:00 AM - 11:00 AM"
"Tomche Shabbos of Boro Park ","Food pantry with kosher food.","","6225 New Utrecht Avenue","BROOKLYN","NY","11219","(718) 259-5576","","Thu: 3:00 PM - 5:00 PM"
"Transfiguration Church","Food pantry.","","263 Marcy Avenue","BROOKLYN","NY","11211","(718) 388-8773","","Mon - Thu: 9:00 AM - 2:00 PM"
"Transfiguration Lutheran Church","Food pantry.","","763 Prospect Avenue","BRONX","NY","10455","(718) 378-3588","","Mon: 1:30 PM - 3:00 PM "
"Trinity Human Service Corporation","Food pantry.","","153A Johnson Avenue","BROOKLYN","NY","11206","(718) 388-3176","","Tue - Fri: 9:00 AM - 12:00 PM, 1:00 PM - 4:00 PM"
"Trinity's Services and Food for the Homeless, Inc","Soup kitchen.","","602 East 9th Street","NEW YORK","NY","10009","(212) 228-5254","","Mon - Fri: 11:00 AM - 12:00 PM"
"Trinity's Services and Food for the Homeless, Inc","Food pantry.","","602 East 9th Street","NEW YORK","NY","10009","(212) 228-5254","","Mon - Thur: 12:30 PM - 1:30 PM"
"Triumphant Full Gospel Assembly","Food pantry.","","889 Rutland Road","BROOKLYN","NY","11203","(718) 774-4696","","Thu: 4:00 PM - 6:00 PM"
"True Gospel Tabernacle","Food pantry.","","1 West Tremont Avenue","BRONX","NY","10453","(718) 901-2786","","Thu: 11:00 AM - 12:30 PM"
"True Holy Church of God in Christ Jesus","Food pantry.","","2336 Atlantic Avenue","BROOKLYN","NY","11233","(718) 385-0248","","Sat: 10:00 AM - 12:00 PM"
"Union Baptist Church","Food pantry.","","461 Decatur Street","BROOKLYN","NY","11233","(718) 452-7248","","Wed: 12:00 PM - 2:00 PM"
"Union Baptist Church","Soup kitchen.","","461 Decatur Street","BROOKLYN","NY","11233","(718) 452-7248","","Wed: 12:00 PM - 2:00 PM"
"United Bronx Parents Food Provider I","Soup kitchen.","","603 Prospect Avenue","BRONX","NY","10455","(718) 991-7100","","Mon-Fri: 2:30 PM - 4:00 PM"
"United Church of Praise International Ministries, Inc","Food pantry.","","32 Sands Street","STATEN ISLAND","NY","10304","(718) 314-8779","","Fri: 1:00 PM - 3:00 PM;  Sun: 1:00 PM - 3:00 PM"
"United Community Baptist Church","Food pantry.","","545 Utica Avenue","BROOKLYN","NY","11236","(718) 467-7708","","Sat: 10:00 AM - 12:00PM"
"United Methodist Center in Far Rockaway","Soup kitchen.","","1032 Beach 19th Street","FAR ROCKAWAY","NY","11691","(718) 327-5071","","Mon - Fri: 11:00 AM - 12:00 PM"
"United Methodist Center in Far Rockaway","Food pantry.","","1032 Beach 19th Street","FAR ROCKAWAY","NY","11691","(718) 327-5071","","Tue, Thu: 9:00 AM - 10:00 AM"
"University Community Social Services, Inc","Soup kitchen.","","137 East 2nd Street","NEW YORK","NY","10009","(347) 850-2230","","Sat: 9:30 AM - 10:30 AM, 1:00 PM - 2:30 PM"
"Upper Manhattan Mental Health Center Incorporated","Food pantry.","","1727 Amsterdam Avenue","NEW YORK","NY","10031","(212) 694-9200","","Tue, Wed, Thu: 2:00 PM - 4:00 PM"
"Urban Strategies Family Support Program","Food pantry.","","61-71 Riverdale Avenue ","BROOKLYN","NY","11212","(718) 346-2539","","Tue: 8:00 AM - 10:00 AM"
"VETS, Inc","Food pantry.","","111-16 173rd Street","JAMAICA","NY","11433","(718) 206-2376","","Fri: 10:00 AM - 12:00 PM"
"Vets Inc. Locust Manor Senior Residence ","Food pantry.","","170-06 Baisley Blvd","JAMAICA","NY","11433","(646) 261-1973","","Thu: 4:30 PM - 5:30 PM"
"Vineyard International Christian Ministries","Food pantry.","","1140 Teller Avenue","BRONX","NY","10456","(718) 538-9211","","Sat: 10:00 AM - 12:00 PM"
"Washington Heights Ecumenical Food Pantry","Food pantry.","","4111 Broadway","NEW YORK","NY","10033","(212) 795-6860","","Thu: 10:00 AM - 2:00 PM"
"We Care Kitchen Little Rock Baptist Church","Soup kitchen.","","375 Bristol Street","BROOKLYN","NY","11212","(718) 495-6722","","Tue, Thu: 11:30 AM - 1:00 PM"
"West Harlem Group Assistance","Food pantry.","","625 Lenox Avenue ","NEW YORK","NY","10031","(212) 690-7900","","Wed: 10:00 AM – 12:00 PM; SENIORS ONLY Wed: 1:30 - 3:00 PM"
"Westside Campaign Against Hunger","Food pantry.","","263 West 86th Street","NEW YORK","NY","10024","(212) 362-3662","","Mon, Wed - Fri: 8:00 AM - 12:00 PM, 1:00 PM - 3:00 PM"
"Whedco","Food pantry.","","50 East 168th Street","BRONX","NY","10452","(718) 839-1100","","Wed: 9:30 AM - 11:30 AM"
"Whosoever Will Baptist Church","Food pantry.","","1651 Popham Avenue","BRONX","NY","10433","(718) 229-5333","","Sat: 9:00 AM -  11:00 AM"
"Willis Avenue United Methodist","Soup kitchen.","","401 East 141st Street","BRONX","NY","10455","","","Tue - Fri: 3:00 PM - 5:00 PM"
"Winner Chapel Inc Food Pantry","Food pantry.","","153-56 Rockaway Boulevard","JAMAICA","NY","11434","(718) 528-3334","","Sat: 4:00 PM - 6:00 PM"
"Woodycrest United Methodist Church","Soup kitchen. ","","89 West 166 Street ","BRONX","NY","10452","(718) 538-7500","","Wed: 12:00 PM - 2:00 PM"
"Worldwide Evangelical Outreach","Food pantry.","","3102 Clarendon Road","BROOKLYN","NY","11226","(718) 284-3551","","Thu: 1:00 PM - 3:00 PM"
"Worldwide Missionary Movement - Centro Evangelistico","Food pantry.","","148 Post Avenue","NEW YORK","NY","10034","(212) 567-5620","","Sat: 9:00 AM - 1:00 PM"
"Xavier Mission Inc","Soup kitchen.","","55 West 15th Street","NEW YORK","NY","10011","(212) 627-2100","","Sun: 12:30 PM - 3:00 PM"
"Zichron Acheinu Levy-Meachem Tzion","Food pantry with kosher food.","","928 44TH STREET","BROOKLYN","NY","11219","(347) 742-0552","","Fri: 12:00 PM - 1:00 PM"
